From: horizons@ssd.jpl.nasa.gov (Horizons Ephemeris System)
Subject: [Horizons] SMALL BODY #C(500@10)_T(Brooks (D/1886 K1)) (1/1)
Date: March 1, 2021 at 1:23:14 PM PST

Automated mail xmit by MAIL_REQUEST, PID= 2301 Mon Mar  1 13:23:14 2021
++++++++++++++++++++++++++++++++ (part 1 of 1)  +++++++++++++++++++++++++++++++
*******************************************************************************
JPL/HORIZONS                 Brooks (D/1886 K1)            2021-Mar-01 13:23:13
Rec #:90001648 (+COV) Soln.date: 2020-Nov-11_11:11:29         # obs: 4 (7 days)

IAU76/J2000 helio. ecliptic osc. elements (au, days, deg., period=Julian yrs):

 EPOCH=  2410055.5 ! 1886-May-29.0000000 (TDB)    RMSW= n.a.
  EC= .5713596274725783   QR= 1.325291557930846   TP= 2410064.7109236433
  OM= 55.13569358584773   W= 176.8772788674663    IN= 12.67159786365291
  A= 3.091849585041274    MA= 358.3301413166807   ADIST= 4.858407612151701
  PER= 5.4367047824262    N= .181291117           ANGMOM= .024824182
  DAN= 4.84881            DDN= 1.32601            L= 232.0888861
  B= .6846843             MOID= .31472            TP= 1886-Jun-07.2109236433

Comet physical (GM= km^3/s^2; RAD= km):
  GM= n.a.                RAD= n.a.
  M1=  n.a.     M2=  n.a.     k1= n.a.    k2= n.a.     PHCOF= n.a.

COMET comments 
1: soln ref.= JPL#1, data arc: 1886-05-25 to 1886-06-01
2: JPLCOV;MPCREF=SAO_2008
*******************************************************************************


*******************************************************************************
Ephemeris / MAIL_REQUEST Mon Mar  1 13:23:14 2021 Pasadena, USA  / Horizons
*******************************************************************************
Target body name: Brooks (D/1886 K1)              {source: JPL#1}
Center body name: Sun (10)                        {source: DE431}
Center-site name: BODY CENTER
*******************************************************************************
Start time      : A.D. 1990-Jan-01 00:00:00.0000 TDB
Stop  time      : A.D. 2020-Dec-31 00:00:00.0000 TDB
Step-size       : 10080 minutes
*******************************************************************************
Center geodetic : 0.00000000,0.00000000,0.0000000 {E-lon(deg),Lat(deg),Alt(km)}
Center cylindric: 0.00000000,0.00000000,0.0000000 {E-lon(deg),Dxy(km),Dz(km)}
Center radii    : 696000.0 x 696000.0 x 696000.0 k{Equator, meridian, pole}    
Small perturbers: Yes                             {source: SB431-N16}
Output units    : AU-D
Output type     : GEOMETRIC cartesian states
Output format   : 6 (LT, range, and range-rate)
Reference frame : Ecliptic of J2000.0
*******************************************************************************
Initial IAU76/J2000 heliocentric ecliptic osculating elements (au, days, deg.):
 EPOCH=  2410055.5 ! 1886-May-29.0000000 (TDB)    RMSW= n.a.                  
  EC= .5713596274725783   QR= 1.325291557930846   TP= 2410064.7109236433      
  OM= 55.13569358584773   W= 176.8772788674663    IN= 12.67159786365291       
 Equivalent ICRF heliocentric equatorial cartesian coordinates (au, au/d):
  X=-9.421712124571986E-01  Y=-8.803131882338961E-01  Z=-3.233784086038907E-01
 VX= 1.336316617619729E-02 VY=-9.784862828891523E-03 VZ=-8.669969003741477E-03
Comet physical (GM= km^3/s^2; RAD= km):                                        
  GM= n.a.                RAD= n.a.                                           
  M1=  n.a.     M2=  n.a.     k1= n.a.    k2= n.a.     PHCOF= n.a.            
*******************************************************************************
           JDTDB,            Calendar Date (TDB),                     LT,                     RG,                     RR,
**************************************************************************************************************************
$$SOE
2459092.500000000, A.D. 2020-Aug-31 00:00:00.0000,  2.586517730389391E-02,  4.478416623336811E+00,  2.817151599308882E-03,
2459099.500000000, A.D. 2020-Sep-07 00:00:00.0000,  2.597827226659291E-02,  4.497998409110636E+00,  2.777655718857444E-03,
2459106.500000000, A.D. 2020-Sep-14 00:00:00.0000,  2.608977185865842E-02,  4.517303965022145E+00,  2.738229100285112E-03,
2459113.500000000, A.D. 2020-Sep-21 00:00:00.0000,  2.619967891780912E-02,  4.536333782407098E+00,  2.698873571076889E-03,
2459120.500000000, A.D. 2020-Sep-28 00:00:00.0000,  2.630799635146734E-02,  4.555088364670067E+00,  2.659590741233364E-03,
2459127.500000000, A.D. 2020-Oct-05 00:00:00.0000,  2.641472712683915E-02,  4.573568225566857E+00,  2.620381950355834E-03,
2459134.500000000, A.D. 2020-Oct-12 00:00:00.0000,  2.651987425898677E-02,  4.591773887139306E+00,  2.581248217615709E-03,
2459141.500000000, A.D. 2020-Oct-19 00:00:00.0000,  2.662344079707606E-02,  4.609705877334120E+00,  2.542190214875294E-03,
2459148.500000000, A.D. 2020-Oct-26 00:00:00.0000,  2.672542981330478E-02,  4.627364728085848E+00,  2.503208498557293E-03,
2459155.500000000, A.D. 2020-Nov-02 00:00:00.0000,  2.682584441526259E-02,  4.644750977456964E+00,  2.464304474319825E-03,
2459162.500000000, A.D. 2020-Nov-09 00:00:00.0000,  2.692468779406760E-02,  4.661865177972437E+00,  2.425480624188103E-03,
2459169.500000000, A.D. 2020-Nov-16 00:00:00.0000,  2.702196321742970E-02,  4.678707895418698E+00,  2.386737798251328E-03,
2459176.500000000, A.D. 2020-Nov-23 00:00:00.0000,  2.711767394268665E-02,  4.695279693786299E+00,  2.348074972918395E-03,
2459183.500000000, A.D. 2020-Nov-30 00:00:00.0000,  2.721182318302632E-02,  4.711581129421471E+00,  2.309491181872291E-03,
2459190.500000000, A.D. 2020-Dec-07 00:00:00.0000,  2.730441412095017E-02,  4.727612753357258E+00,  2.270985832443281E-03,
2459197.500000000, A.D. 2020-Dec-14 00:00:00.0000,  2.739544991774776E-02,  4.743375112953984E+00,  2.232558428384534E-03,
2459204.500000000, A.D. 2020-Dec-21 00:00:00.0000,  2.748493371368103E-02,  4.758868751931147E+00,  2.194208409955265E-03,
2459211.500000000, A.D. 2020-Dec-28 00:00:00.0000,  2.757286862395734E-02,  4.774094209670182E+00,  2.155935090353514E-03,
